start=new Date('2022-09-29T00:00:00.000Z').valueOf();
sats=[{"REV_AT_EPOCH":"1215","CLASSIFICATION_TYPE":"U","MEAN_MOTION":"15.01262109","SEMIMAJOR_AXIS":"6941.140","CENTER_NAME":"EARTH","TLE_LINE2":"2 53051  97.6574  91.3873 0002210  60.5820 299.5625 15.01262109 12155","PERIOD":"95.919","TLE_LINE1":"1 53051U 22077J   22271.56447897  .00001326  00000-0  10780-3 0  9997","REF_FRAME":"TEME","LAUNCH_DATE":"2022-07-11","BSTAR":"0.00010780000000","TIME_SYSTEM":"UTC","EPHEMERIS_TYPE":"0","APOAPSIS":"564.539","MEAN_ELEMENT_THEORY":"SGP4","ELEMENT_SET_NO":"999","OBJECT_NAME":"STARLINK-4336","COUNTRY_CODE":"US","OBJECT_TYPE":"PAYLOAD","OBJECT_ID":"2022-077J","DECAY_DATE":null,"SITE":"AFWTR","ARG_OF_PERICENTER":"60.5820","INCLINATION":"97.6574","MEAN_MOTION_DDOT":"0.0000000000000","ECCENTRICITY":"0.00022100","RA_OF_ASC_NODE":"91.3873","FILE":"3586039","MEAN_MOTION_DOT":"0.00001326","MEAN_ANOMALY":"299.5625","PERIAPSIS":"561.471","RCS_SIZE":"LARGE","GP_ID":"213713040","NORAD_CAT_ID":"53051","EPOCH":"2022-09-28T13:32:50.983008"},{"TLE_LINE1":"1 53052U 22077K   22271.43487901  .00000414  00000-0  36854-4 0  9992","PERIOD":"95.919","TLE_LINE2":"2 53052  97.6577  91.2580 0002080  47.3809 312.7590 15.01260716 12137","BSTAR":"0.00003685400000","TIME_SYSTEM":"UTC","LAUNCH_DATE":"2022-07-11","REF_FRAME":"TEME","REV_AT_EPOCH":"1213","CENTER_NAME":"EARTH","SEMIMAJOR_AXIS":"6941.145","MEAN_MOTION":"15.01260716","CLASSIFICATION_TYPE":"U","OBJECT_NAME":"STARLINK-4341","ELEMENT_SET_NO":"999","COUNTRY_CODE":"US","APOAPSIS":"564.453","EPHEMERIS_TYPE":"0","MEAN_ELEMENT_THEORY":"SGP4","DECAY_DATE":null,"OBJECT_ID":"2022-077K","INCLINATION":"97.6577","ARG_OF_PERICENTER":"47.3809","SITE":"AFWTR","OBJECT_TYPE":"PAYLOAD","EPOCH":"2022-09-28T10:26:13.546464","NORAD_CAT_ID":"53052","GP_ID":"213712326","PERIAPSIS":"561.566","RCS_SIZE":"LARGE","ECCENTRICITY":"0.00020800","MEAN_MOTION_DDOT":"0.0000000000000","MEAN_ANOMALY":"312.7590","MEAN_MOTION_DOT":"0.00000414","RA_OF_ASC_NODE":"91.2580","FILE":"3586039"},{"PERIAPSIS":"561.831","RCS_SIZE":"LARGE","GP_ID":"213712236","NORAD_CAT_ID":"53053","EPOCH":"2022-09-28T13:27:31.232160","MEAN_MOTION_DDOT":"0.0000000000000","ECCENTRICITY":"0.00017280","RA_OF_ASC_NODE":"91.3829","FILE":"3586039","MEAN_MOTION_DOT":"0.00000749","MEAN_ANOMALY":"294.7318","OBJECT_ID":"2022-077L","DECAY_DATE":null,"SITE":"AFWTR","ARG_OF_PERICENTER":"65.4086","INCLINATION":"97.6579","OBJECT_TYPE":"PAYLOAD","ELEMENT_SET_NO":"999","OBJECT_NAME":"STARLINK-4337","COUNTRY_CODE":"US","EPHEMERIS_TYPE":"0","APOAPSIS":"564.230","MEAN_ELEMENT_THEORY":"SGP4","PERIOD":"95.920","TLE_LINE2":"2 53053  97.6579  91.3829 0001728  65.4086 294.7318 15.01253971 12157","TLE_LINE1":"1 53053U 22077L   22271.56077815  .00000749  00000-0  62916-4 0  9995","REF_FRAME":"TEME","LAUNCH_DATE":"2022-07-11","TIME_SYSTEM":"UTC","BSTAR":"0.00006291600000","REV_AT_EPOCH":"1215","MEAN_MOTION":"15.01253971","CLASSIFICATION_TYPE":"U","CENTER_NAME":"EARTH","SEMIMAJOR_AXIS":"6941.165"},{"NORAD_CAT_ID":"53054","EPOCH":"2022-09-28T11:59:32.311392","PERIAPSIS":"561.320","RCS_SIZE":"LARGE","GP_ID":"213712074","ECCENTRICITY":"0.00024280","MEAN_MOTION_DDOT":"0.0000000000000","MEAN_MOTION_DOT":"-0.00000176","MEAN_ANOMALY":"311.2625","FILE":"3586039","RA_OF_ASC_NODE":"91.3241","DECAY_DATE":null,"OBJECT_ID":"2022-077M","ARG_OF_PERICENTER":"48.8809","INCLINATION":"97.6586","SITE":"AFWTR","OBJECT_TYPE":"PAYLOAD","ELEMENT_SET_NO":"999","OBJECT_NAME":"STARLINK-4339","COUNTRY_CODE":"US","APOAPSIS":"564.691","EPHEMERIS_TYPE":"0","MEAN_ELEMENT_THEORY":"SGP4","PERIOD":"95.919","TLE_LINE2":"2 53054  97.6586  91.3241 0002428  48.8809 311.2625 15.01262139 12141","TLE_LINE1":"1 53054U 22077M   22271.49967953 -.00000176  00000-0 -91118-5 0  9992","BSTAR":"-0.00000911180000","TIME_SYSTEM":"UTC","REF_FRAME":"TEME","LAUNCH_DATE":"2022-07-11","REV_AT_EPOCH":"1214","CLASSIFICATION_TYPE":"U","MEAN_MOTION":"15.01262139","SEMIMAJOR_AXIS":"6941.140","CENTER_NAME":"EARTH"},{"REV_AT_EPOCH":"1214","MEAN_MOTION":"15.01264698","CLASSIFICATION_TYPE":"U","SEMIMAJOR_AXIS":"6941.132","CENTER_NAME":"EARTH","TLE_LINE2":"2 53055  97.6573  91.3133 0002167  54.6490 305.4937 15.01264698 12142","PERIOD":"95.919","TLE_LINE1":"1 53055U 22077N   22271.49227707 -.00000610  00000-0 -42913-4 0  9990","REF_FRAME":"TEME","LAUNCH_DATE":"2022-07-11","BSTAR":"-0.00004291300000","TIME_SYSTEM":"UTC","EPHEMERIS_TYPE":"0","APOAPSIS":"564.502","MEAN_ELEMENT_THEORY":"SGP4","ELEMENT_SET_NO":"999","OBJECT_NAME":"STARLINK-4338","COUNTRY_CODE":"US","OBJECT_TYPE":"PAYLOAD","OBJECT_ID":"2022-077N","DECAY_DATE":null,"SITE":"AFWTR","ARG_OF_PERICENTER":"54.6490","INCLINATION":"97.6573","MEAN_MOTION_DDOT":"0.0000000000000","ECCENTRICITY":"0.00021670","RA_OF_ASC_NODE":"91.3133","FILE":"3586039","MEAN_MOTION_DOT":"-0.00000610","MEAN_ANOMALY":"305.4937","RCS_SIZE":"LARGE","PERIAPSIS":"561.493","GP_ID":"213712803","NORAD_CAT_ID":"53055","EPOCH":"2022-09-28T11:48:52.738848"},{"TLE_LINE1":"1 53056U 22077P   22271.82924212 -.00000430  00000-0 -28867-4 0  9995","PERIOD":"95.920","TLE_LINE2":"2 53056  97.6576  91.6470 0001960  64.8957 295.2470 15.01253483 12197","TIME_SYSTEM":"UTC","BSTAR":"-0.00002886700000","LAUNCH_DATE":"2022-07-11","REF_FRAME":"TEME","REV_AT_EPOCH":"1219","SEMIMAJOR_AXIS":"6941.167","CENTER_NAME":"EARTH","CLASSIFICATION_TYPE":"U","MEAN_MOTION":"15.01253483","OBJECT_NAME":"STARLINK-4314","ELEMENT_SET_NO":"999","COUNTRY_CODE":"US","APOAPSIS":"564.392","EPHEMERIS_TYPE":"0","MEAN_ELEMENT_THEORY":"SGP4","DECAY_DATE":null,"OBJECT_ID":"2022-077P","INCLINATION":"97.6576","ARG_OF_PERICENTER":"64.8957","SITE":"AFWTR","OBJECT_TYPE":"PAYLOAD","EPOCH":"2022-09-28T19:54:06.519168","NORAD_CAT_ID":"53056","GP_ID":"213768671","PERIAPSIS":"561.671","RCS_SIZE":"LARGE","ECCENTRICITY":"0.00019600","MEAN_MOTION_DDOT":"0.0000000000000","MEAN_ANOMALY":"295.2470","MEAN_MOTION_DOT":"-0.00000430","RA_OF_ASC_NODE":"91.6470","FILE":"3586258"},{"ARG_OF_PERICENTER":"87.9538","INCLINATION":"97.6559","SITE":"AFWTR","DECAY_DATE":null,"OBJECT_ID":"2022-077Q","OBJECT_TYPE":"PAYLOAD","NORAD_CAT_ID":"53057","EPOCH":"2022-09-28T18:07:27.271200","RCS_SIZE":"LARGE","PERIAPSIS":"562.054","GP_ID":"213767797","MEAN_MOTION_DOT":"0.00001659","MEAN_ANOMALY":"272.1842","RA_OF_ASC_NODE":"91.5688","FILE":"3586258","MEAN_MOTION_DDOT":"0.0000000000000","ECCENTRICITY":"0.00013630","BSTAR":"0.00013375000000","TIME_SYSTEM":"UTC","REF_FRAME":"TEME","LAUNCH_DATE":"2022-07-11","PERIOD":"95.919","TLE_LINE2":"2 53057  97.6559  91.5688 0001363  87.9538 272.1842 15.01263703 12189","TLE_LINE1":"1 53057U 22077Q   22271.75517675  .00001659  00000-0  13375-3 0  9998","CLASSIFICATION_TYPE":"U","MEAN_MOTION":"15.01263703","SEMIMAJOR_AXIS":"6941.135","CENTER_NAME":"EARTH","REV_AT_EPOCH":"1218","COUNTRY_CODE":"US","ELEMENT_SET_NO":"999","OBJECT_NAME":"STARLINK-4252","MEAN_ELEMENT_THEORY":"SGP4","APOAPSIS":"563.947","EPHEMERIS_TYPE":"0"},{"MEAN_ANOMALY":"300.1921","MEAN_MOTION_DOT":"0.00001710","RA_OF_ASC_NODE":"91.3796","FILE":"3586039","MEAN_MOTION_DDOT":"0.0000000000000","ECCENTRICITY":"0.00017700","EPOCH":"2022-09-28T13:25:12.369216","NORAD_CAT_ID":"53058","GP_ID":"213712490","PERIAPSIS":"561.771","RCS_SIZE":"LARGE","OBJECT_TYPE":"PAYLOAD","INCLINATION":"97.6575","ARG_OF_PERICENTER":"59.9479","SITE":"AFWTR","DECAY_DATE":null,"OBJECT_ID":"2022-077R","MEAN_ELEMENT_THEORY":"SGP4","APOAPSIS":"564.228","EPHEMERIS_TYPE":"0","COUNTRY_CODE":"US","OBJECT_NAME":"STARLINK-4317","ELEMENT_SET_NO":"999","CENTER_NAME":"EARTH","SEMIMAJOR_AXIS":"6941.134","MEAN_MOTION":"15.01264057","CLASSIFICATION_TYPE":"U","REV_AT_EPOCH":"1215","TIME_SYSTEM":"UTC","BSTAR":"0.00013765000000","LAUNCH_DATE":"2022-07-11","REF_FRAME":"TEME","TLE_LINE1":"1 53058U 22077R   22271.55917094  .00001710  00000-0  13765-3 0  9997","PERIOD":"95.919","TLE_LINE2":"2 53058  97.6575  91.3796 0001770  59.9479 300.1921 15.01264057 12151"},{"RA_OF_ASC_NODE":"91.3009","FILE":"3586088","MEAN_ANOMALY":"231.8087","MEAN_MOTION_DOT":"0.00000248","ECCENTRICITY":"0.00008600","MEAN_MOTION_DDOT":"0.0000000000000","GP_ID":"213739531","RCS_SIZE":"LARGE","PERIAPSIS":"562.375","EPOCH":"2022-09-28T11:38:33.866880","NORAD_CAT_ID":"53059","OBJECT_TYPE":"PAYLOAD","SITE":"AFWTR","INCLINATION":"97.6540","ARG_OF_PERICENTER":"128.3214","OBJECT_ID":"2022-077S","DECAY_DATE":null,"MEAN_ELEMENT_THEORY":"SGP4","EPHEMERIS_TYPE":"0","APOAPSIS":"563.569","COUNTRY_CODE":"US","OBJECT_NAME":"STARLINK-4320","ELEMENT_SET_NO":"999","CENTER_NAME":"EARTH","SEMIMAJOR_AXIS":"6941.107","MEAN_MOTION":"15.01272943","CLASSIFICATION_TYPE":"U","REV_AT_EPOCH":"1272","LAUNCH_DATE":"2022-07-11","REF_FRAME":"TEME","BSTAR":"0.00002387000000","TIME_SYSTEM":"UTC","TLE_LINE1":"1 53059U 22077S   22271.48511420  .00000248  00000-0  23870-4 0  9997","PERIOD":"95.919","TLE_LINE2":"2 53059  97.6540  91.3009 0000860 128.3214 231.8087 15.01272943 12727"},{"LAUNCH_DATE":"2022-07-11","REF_FRAME":"TEME","BSTAR":"-0.00016082000000","TIME_SYSTEM":"UTC","TLE_LINE1":"1 53060U 22077T   22271.55710168 -.00002123  00000-0 -16082-3 0  9999","TLE_LINE2":"2 53060  97.6561  91.3730 0001214  49.7920 310.3410 15.01233687 12159","PERIOD":"95.921","SEMIMAJOR_AXIS":"6941.228","CENTER_NAME":"EARTH","MEAN_MOTION":"15.01233687","CLASSIFICATION_TYPE":"U","REV_AT_EPOCH":"1215","COUNTRY_CODE":"US","OBJECT_NAME":"STARLINK-4305","ELEMENT_SET_NO":"999","MEAN_ELEMENT_THEORY":"SGP4","EPHEMERIS_TYPE":"0","APOAPSIS":"563.936","SITE":"AFWTR","INCLINATION":"97.6561","ARG_OF_PERICENTER":"49.7920","OBJECT_ID":"2022-077T","DECAY_DATE":null,"OBJECT_TYPE":"PAYLOAD","GP_ID":"213712327","PERIAPSIS":"562.250","RCS_SIZE":"LARGE","EPOCH":"2022-09-28T13:22:13.585152","NORAD_CAT_ID":"53060","FILE":"3586039","RA_OF_ASC_NODE":"91.3730","MEAN_ANOMALY":"310.3410","MEAN_MOTION_DOT":"-0.00002123","MEAN_MOTION_DDOT":"0.0000000000000","ECCENTRICITY":"0.00012140"}];
